1 00671U 63038C   23245.48395423  .00000091  00000-0  13892-3 0  9994
2 00671  90.0084 334.6865 0041033  31.8907 328.4712 13.44982087938093
1 00671U 63038C   23245.78153083  .00000096  00000-0  14616-3 0  9991
2 00671  90.0083 334.6867 0040999  31.0446 329.3112 13.44982153938137
1 00671U 63038C   23246.52547230  .00000091  00000-0  13872-3 0  9993
2 00671  90.0083 334.6872 0040937  28.9628 331.3779 13.44982219938238
1 00671U 63038C   23247.19501944  .00000090  00000-0  13594-3 0  9999
2 00671  90.0082 334.6877 0040873  27.0727 333.2540 13.44982344938327
1   671U 63038C   23247.93896067  .00000082  00000-0  12329-3 0  9990
2   671  90.0081 334.6883 0040803  24.9857 335.3254 13.44982407939007
1 00671U 63038C   23248.23653715  .00000079  00000-0  11859-3 0  9998
2 00671  90.0081 334.6886 0040776  24.1382 336.1665 13.44982432938466
1 00671U 63038C   23248.98047816  .00000073  00000-0  10845-3 0  9997
2 00671  90.0080 334.6891 0040699  22.0266 338.2620 13.44982523938569
1   671U 63038C   23250.17078364  .00000078  00000-0  11586-3 0  9991
2   671  90.0080 334.6901 0040587  18.6484 341.6141 13.44982746939306
1 00671U 63038C   23250.17078364  .00000078  00000-0  11586-3 0  9991
2 00671  90.0080 334.6901 0040587  18.6484 341.6141 13.44982746938721
1 00671U 63038C   23250.69154218  .00000074  00000-0  10917-3 0  9994
2 00671  90.0079 334.6904 0040533  17.1602 343.0906 13.44982802938794
1 00671U 63038C   23251.28669480  .00000072  00000-0  10696-3 0  9994
2 00671  90.0078 334.6909 0040481  15.4876 344.7500 13.44982884938871
1 00671U 63038C   23251.73305927  .00000065  00000-0  95239-4 0  9996
2 00671  90.0078 334.6912 0040437  14.2077 346.0198 13.44982903938933
1   671U 63038C   23252.17942368  .00000064  00000-0  93200-4 0  9996
2   671  90.0078 334.6915 0040396  12.9391 347.2783 13.44982956939576
1 00671U 63038C   23252.47699991  .00000069  00000-0  10188-3 0  9998
2 00671  90.0078 334.6917 0040365  12.0885 348.1222 13.44983014939038
1 00671U 63038C   23253.29533454  .00000073  00000-0  10764-3 0  9995
2 00671  90.0077 334.6923 0040279   9.7230 350.4688 13.44983119939145
1   671U 63038C   23254.26245717  .00000080  00000-0  12033-3 0  9994
2   671  90.0077 334.6930 0040182   6.9487 353.2210 13.44983289939857
1 00671U 63038C   23254.48563932  .00000080  00000-0  11988-3 0  9998
2 00671  90.0077 334.6931 0040163   6.3126 353.8519 13.44983302939305
1 00671U 63038C   23255.60154995  .00000089  00000-0  13484-3 0  9990
2 00671  90.0076 334.6940 0040055   3.0911 357.0477 13.44983457939456
1 00671U 63038C   23255.75033797  .00000093  00000-0  14250-3 0  9999
2 00671  90.0076 334.6940 0040044   2.6634 357.4720 13.44983523939472
1   671U 63038C   23256.27109613  .00000104  00000-0  16025-3 0  9993
2   671  90.0075 334.6944 0039995   1.1750 358.9484 13.44983666940126
1 00671U 63038C   23256.27109613  .00000104  00000-0  16025-3 0  9993
2 00671  90.0075 334.6944 0039995   1.1750 358.9484 13.44983666939540
1 00671U 63038C   23256.79185428  .00000101  00000-0  15623-3 0  9998
2 00671  90.0074 334.6947 0039943 359.6715   0.4400 13.44983739939613
1 00671U 63038C   23257.23821843  .00000111  00000-0  17206-3 0  9996
2 00671  90.0074 334.6950 0039899 358.3991   1.7023 13.44983855939679
1 00671U 63038C   23257.90776452  .00000114  00000-0  17781-3 0  9996
2 00671  90.0073 334.6955 0039832 356.4670   3.6190 13.44983974939761
1   671U 63038C   23258.27973462  .00000116  00000-0  18166-3 0  9997
2   671  90.0072 334.6957 0039796 355.4094   4.6683 13.44984051940396
1 00671U 63038C   23258.27973462  .00000116  00000-0  18166-3 0  9997
2 00671  90.0072 334.6957 0039796 355.4094   4.6683 13.44984051939811
1 00671U 63038C   23259.24685668  .00000108  00000-0  16767-3 0  9999
2 00671  90.0071 334.6964 0039701 352.6203   7.4356 13.44984195939946
1 00671U 63038C   23260.58594854  .00000121  00000-0  18992-3 0  9991
2 00671  90.0069 334.6972 0039582 348.7246  11.3011 13.44984511940128
1 00671U 63038C   23261.25549445  .00000112  00000-0  17416-3 0  9992
2 00671  90.0067 334.6976 0039519 346.7830  13.2279 13.44984594940215
1 00671U 63038C   23261.70185834  .00000106  00000-0  16452-3 0  9992
2 00671  90.0067 334.6979 0039475 345.4883  14.5128 13.44984669940279
1   671U 63038C   23262.74337393  .00000110  00000-0  17177-3 0  9996
2   671  90.0065 334.6985 0039381 342.4451  17.5333 13.44984927940995
1 00671U 63038C   23263.48731363  .00000111  00000-0  17212-3 0  9994
2 00671  90.0064 334.6990 0039317 340.2757  19.6868 13.44985073940511
1 00671U 63038C   23263.71049554  .00000103  00000-0  15997-3 0  9993
2 00671  90.0064 334.6991 0039296 339.6192  20.3386 13.44985099940548
1 00671U 63038C   23264.23125332  .00000100  00000-0  15451-3 0  9992
2 00671  90.0063 334.6994 0039249 338.0976  21.8493 13.44985200940618
1 00671U 63038C   23264.90079899  .00000098  00000-0  15060-3 0  9994
2 00671  90.0063 334.6998 0039192 336.1294  23.8035 13.44985320940708
1   671U 63038C   23264.90079899  .00000098  00000-0  15060-3 0  9994
2   671  90.0063 334.6998 0039192 336.1294  23.8035 13.44985320941282
1 00671U 63038C   23265.57034463  .00000106  00000-0  16399-3 0  9992
2 00671  90.0062 334.7002 0039135 334.1661  25.7532 13.44985502940791
1 00671U 63038C   23265.71913258  .00000100  00000-0  15447-3 0  9993
2 00671  90.0062 334.7003 0039125 333.7223  26.1940 13.44985497940814
1 00671U 63038C   23266.23989030  .00000097  00000-0  14881-3 0  9998
2 00671  90.0061 334.7006 0039081 332.1916  27.7143 13.44985591940883
1   671U 63038C   23267.13261784  .00000094  00000-0  14467-3 0  9994
2   671  90.0061 334.7010 0039020 329.5617  30.3265 13.44985754941583
1 00671U 63038C   23267.57898162  .00000100  00000-0  15407-3 0  9991
2 00671  90.0060 334.7012 0038983 328.2423  31.6374 13.44985852941069
1 00671U 63038C   23267.72776955  .00000098  00000-0  15024-3 0  9994
2 00671  90.0059 334.7013 0038975 327.7987  32.0781 13.44985865941081
1 00671U 63038C   23268.47170905  .00000111  00000-0  17349-3 0  9998
2 00671  90.0059 334.7017 0038924 325.5814  34.2814 13.44986076941181
1 00671U 63038C   23268.69489088  .00000114  00000-0  17769-3 0  9996
2 00671  90.0058 334.7018 0038904 324.9246  34.9341 13.44986164941215
1   671U 63038C   23269.14125464  .00000113  00000-0  17580-3 0  9992
2   671  90.0057 334.7020 0038871 323.6052  36.2454 13.44986240941856
1 00671U 63038C   23269.58761839  .00000118  00000-0  18543-3 0  9997
2 00671  90.0056 334.7021 0038836 322.2907  37.5520 13.44986359941333
1 00671U 63038C   23269.73640632  .00000122  00000-0  19090-3 0  9994
2 00671  90.0056 334.7022 0038806 321.8804  37.9600 13.44986416941351
1 00671U 63038C   23270.25716406  .00000127  00000-0  19938-3 0  9992
2 00671  90.0055 334.7024 0038768 320.3439  39.4875 13.44986525941427
1   671U 63038C   23271.22428555  .00000121  00000-0  19080-3 0  9997
2   671  90.0053 334.7028 0038699 317.4730  42.3422 13.44986679942133
1 00671U 63038C   23271.59625534  .00000122  00000-0  19205-3 0  9993
2 00671  90.0053 334.7030 0038677 316.3603  43.4488 13.44986758941602
1 00671U 63038C   23271.74504325  .00000120  00000-0  18921-3 0  9996
2 00671  90.0052 334.7030 0038667 315.9182  43.8885 13.44986783941622
1 00671U 63038C   23272.56337680  .00000128  00000-0  20174-3 0  9996
2 00671  90.0051 334.7033 0038613 313.4838  46.3101 13.44986979941734
1 00671U 63038C   23273.23292234  .00000127  00000-0  20063-3 0  9992
2 00671  90.0049 334.7035 0038580 311.4769  48.3069 13.44987138941820
1   671U 63038C   23273.45610422  .00000127  00000-0  19950-3 0  9992
2   671  90.0049 334.7036 0038566 310.8169  48.9636 13.44987175942437
1 00671U 63038C   23274.57201335  .00000133  00000-0  21069-3 0  9996
2 00671  90.0047 334.7041 0038494 307.4704  52.2945 13.44987558942007
1 00671U 63038C   23274.86958914  .00000135  00000-0  21345-3 0  9999
2 00671  90.0047 334.7043 0038478 306.5817  53.1793 13.44987638942040
1   671U 63038C   23275.46474079  .00000135  00000-0  21319-3 0  9992
2   671  90.0046 334.7045 0038441 304.8056  54.9477 13.44987773942708
1 00671U 63038C   23275.68792260  .00000134  00000-0  21174-3 0  9999
2 00671  90.0045 334.7046 0038434 304.1332  55.6173 13.44987847942152
1 00671U 63038C   23276.58065006  .00000123  00000-0  19321-3 0  9999
2 00671  90.0043 334.7049 0038386 301.4651  58.2747 13.44988029942275
1 00671U 63038C   23276.72943795  .00000121  00000-0  19081-3 0  9996
2 00671  90.0043 334.7050 0038380 301.0198  58.7183 13.44988067942296
1 00671U 63038C   23277.54777148  .00000125  00000-0  19705-3 0  9991
2 00671  90.0041 334.7052 0038337 298.5701  61.1591 13.44988280942409
1   671U 63038C   23277.69655945  .00000118  00000-0  18469-3 0  9995
2   671  90.0040 334.7053 0038336 298.1202  61.6074 13.44988263943009
1 00671U 63038C   23277.91974128  .00000120  00000-0  18861-3 0  9996
2 00671  90.0040 334.7053 0038331 297.4533  62.2720 13.44988324942454
1 00671U 63038C   23278.58928680  .00000124  00000-0  19460-3 0  9992
2 00671  90.0038 334.7055 0038303 295.4383  64.2803 13.44988556942544
1 00671U 63038C   23278.73807472  .00000120  00000-0  18778-3 0  9991
2 00671  90.0038 334.7056 0038303 294.9913  64.7258 13.44988568942562
1 00671U 63038C   23279.55640824  .00000124  00000-0  19441-3 0  9990
2 00671  90.0038 334.7058 0038282 292.5254  67.1843 13.44988796942674
1   671U 63038C   23279.70519616  .00000121  00000-0  19077-3 0  9993
2   671  90.0037 334.7059 0038283 292.0786  67.6299 13.44988817943271
1 00671U 63038C   23279.85398409  .00000121  00000-0  19089-3 0  9997
2 00671  90.0037 334.7060 0038279 291.6320  68.0752 13.44988840942710
1 00671U 63038C   23280.52352981  .00000123  00000-0  19368-3 0  9990
2 00671  90.0037 334.7062 0038261 289.6188  70.0832 13.44988979942807
1 00671U 63038C   23280.89549966  .00000118  00000-0  18479-3 0  9997
2 00671  90.0036 334.7063 0038254 288.4985  71.2008 13.44989028942850
1 00671U 63038C   23281.56504537  .00000125  00000-0  19775-3 0  9995
2 00671  90.0035 334.7064 0038240 286.4862  73.2086 13.44989236942946
